{"type":"FeatureCollection","features":[{"type":"Feature","properties":{"kat":"kindergarten","name":"Kindergarten Waldpark","gemeinde":"Neuhausen am Rheinfall"},"geometry":{"type":"Point","coordinates":[8.60521,47.68199]}},{"type":"Feature","properties":{"kat":"schule","name":"","gemeinde":"Siblingen"},"geometry":{"type":"Point","coordinates":[8.51922,47.71465]}},{"type":"Feature","properties":{"kat":"schule","name":"Schule Schleitheim","gemeinde":"Schleitheim"},"geometry":{"type":"Point","coordinates":[8.48427,47.74769]}},{"type":"Feature","properties":{"kat":"schule","name":"","gemeinde":"Beggingen"},"geometry":{"type":"Point","coordinates":[8.53299,47.76654]}},{"type":"Feature","properties":{"kat":"kindergarten","name":"Kindergarten Guntmadingen","gemeinde":"Beringen"},"geometry":{"type":"Point","coordinates":[8.55694,47.68554]}},{"type":"Feature","properties":{"kat":"schule","name":"Primarschule","gemeinde":"Thayngen"},"geometry":{"type":"Point","coordinates":[8.71141,47.74946]}},{"type":"Feature","properties":{"kat":"kindergarten","name":"Kinderkrippe Kimi","gemeinde":"Thayngen"},"geometry":{"type":"Point","coordinates":[8.71075,47.74813]}},{"type":"Feature","properties":{"kat":"kindergarten","name":"WaldSpielgruppe Schneckennest","gemeinde":"Beringen"},"geometry":{"type":"Point","coordinates":[8.56263,47.68064]}},{"type":"Feature","properties":{"kat":"altersheim","name":"BWA - Betreutes Wohnen und Arbeiten","gemeinde":"Büttenhardt"},"geometry":{"type":"Point","coordinates":[8.64056,47.76393]}},{"type":"Feature","properties":{"kat":"kindergarten","name":"Kindergarten Herti","gemeinde":"Lohn (SH)"},"geometry":{"type":"Point","coordinates":[8.66639,47.75504]}},{"type":"Feature","properties":{"kat":"schule","name":"Orientierungsschule","gemeinde":"Thayngen"},"geometry":{"type":"Point","coordinates":[8.71066,47.74874]}},{"type":"Feature","properties":{"kat":"schule","name":"Primarschule","gemeinde":"Thayngen"},"geometry":{"type":"Point","coordinates":[8.71072,47.74973]}},{"type":"Feature","properties":{"kat":"kindergarten","name":"Kindergarten Gächlingen","gemeinde":"Gächlingen"},"geometry":{"type":"Point","coordinates":[8.49726,47.70191]}},{"type":"Feature","properties":{"kat":"kindergarten","name":"Kindergarten Rhyhüsli und Sunnestrahl","gemeinde":"Rüdlingen"},"geometry":{"type":"Point","coordinates":[8.57175,47.57759]}},{"type":"Feature","properties":{"kat":"kindergarten","name":"Kindergarten Rietwies","gemeinde":"Stetten (SH)"},"geometry":{"type":"Point","coordinates":[8.65849,47.73865]}},{"type":"Feature","properties":{"kat":"schule","name":"International School of Schaffhausen","gemeinde":"Schaffhausen"},"geometry":{"type":"Point","coordinates":[8.63076,47.72448]}},{"type":"Feature","properties":{"kat":"schule","name":"Sprachheilschule Marienstift","gemeinde":"Schaffhausen"},"geometry":{"type":"Point","coordinates":[8.62463,47.69248]}},{"type":"Feature","properties":{"kat":"schule","name":"Dorfschulhaus","gemeinde":"Rüdlingen"},"geometry":{"type":"Point","coordinates":[8.57177,47.57758]}},{"type":"Feature","properties":{"kat":"schule","name":"Schulhaus Neunkirch","gemeinde":"Neunkirch"},"geometry":{"type":"Point","coordinates":[8.49865,47.69225]}},{"type":"Feature","properties":{"kat":"schule","name":"","gemeinde":"Buch (SH)"},"geometry":{"type":"Point","coordinates":[8.77893,47.71732]}},{"type":"Feature","properties":{"kat":"kindergarten","name":"Kindergarten Bargen","gemeinde":"Bargen (SH)"},"geometry":{"type":"Point","coordinates":[8.61122,47.79287]}},{"type":"Feature","properties":{"kat":"kindergarten","name":"Kindergarten","gemeinde":"Thayngen"},"geometry":{"type":"Point","coordinates":[8.67766,47.77237]}},{"type":"Feature","properties":{"kat":"schule","name":"Reiatschule","gemeinde":"Thayngen"},"geometry":{"type":"Point","coordinates":[8.67061,47.77904]}},{"type":"Feature","properties":{"kat":"altersheim","name":"Wohn- und Pflegeheim Sonnmatt","gemeinde":"Wilchingen"},"geometry":{"type":"Point","coordinates":[8.46693,47.67181]}},{"type":"Feature","properties":{"kat":"schule","name":"Neues Schulhaus","gemeinde":"Dörflingen"},"geometry":{"type":"Point","coordinates":[8.72371,47.70698]}},{"type":"Feature","properties":{"kat":"kindergarten","name":"Kindergarten","gemeinde":"Dörflingen"},"geometry":{"type":"Point","coordinates":[8.72387,47.70647]}},{"type":"Feature","properties":{"kat":"schule","name":"Altes Schulhaus","gemeinde":"Dörflingen"},"geometry":{"type":"Point","coordinates":[8.72341,47.70659]}},{"type":"Feature","properties":{"kat":"schule","name":"Gemeindewiesen Realschulhaus","gemeinde":"Neuhausen am Rheinfall"},"geometry":{"type":"Point","coordinates":[8.60418,47.68132]}},{"type":"Feature","properties":{"kat":"schule","name":"Aula Schulhaus","gemeinde":"Ramsen"},"geometry":{"type":"Point","coordinates":[8.81582,47.70891]}},{"type":"Feature","properties":{"kat":"schule","name":"Schulhaus Neunkirch","gemeinde":"Neunkirch"},"geometry":{"type":"Point","coordinates":[8.49865,47.69144]}},{"type":"Feature","properties":{"kat":"schule","name":"","gemeinde":"Neunkirch"},"geometry":{"type":"Point","coordinates":[8.4994,47.69176]}},{"type":"Feature","properties":{"kat":"kindergarten","name":"Kindergarten im Lahn 1+2","gemeinde":"Schaffhausen"},"geometry":{"type":"Point","coordinates":[8.61643,47.70607]}},{"type":"Feature","properties":{"kat":"kindergarten","name":"Kindergarten Riet","gemeinde":"Schaffhausen"},"geometry":{"type":"Point","coordinates":[8.61523,47.70408]}},{"type":"Feature","properties":{"kat":"kindergarten","name":"Kindergarten Oberbild","gemeinde":"Thayngen"},"geometry":{"type":"Point","coordinates":[8.70306,47.74898]}},{"type":"Feature","properties":{"kat":"kindergarten","name":"Kindergarten Engelmann","gemeinde":"Thayngen"},"geometry":{"type":"Point","coordinates":[8.71551,47.74835]}},{"type":"Feature","properties":{"kat":"schule","name":"Schulhaus Silberberg","gemeinde":"Thayngen"},"geometry":{"type":"Point","coordinates":[8.70027,47.749]}},{"type":"Feature","properties":{"kat":"altersheim","name":"Seniorenzentrum Reiat","gemeinde":"Thayngen"},"geometry":{"type":"Point","coordinates":[8.70403,47.74635]}},{"type":"Feature","properties":{"kat":"schule","name":"Schule Thayngen Schulleitung und Hort","gemeinde":"Thayngen"},"geometry":{"type":"Point","coordinates":[8.71096,47.74835]}},{"type":"Feature","properties":{"kat":"altersheim","name":"Alterszentrum Breite - Wiesli","gemeinde":"Schaffhausen"},"geometry":{"type":"Point","coordinates":[8.62071,47.70114]}},{"type":"Feature","properties":{"kat":"altersheim","name":"Alterszentrum Breite - Wiesli","gemeinde":"Schaffhausen"},"geometry":{"type":"Point","coordinates":[8.6201,47.701]}},{"type":"Feature","properties":{"kat":"schule","name":"","gemeinde":"Schaffhausen"},"geometry":{"type":"Point","coordinates":[8.62259,47.70299]}},{"type":"Feature","properties":{"kat":"schule","name":"Schulhaus Breite","gemeinde":"Schaffhausen"},"geometry":{"type":"Point","coordinates":[8.62224,47.70345]}},{"type":"Feature","properties":{"kat":"schule","name":"Schulhaus Sandacker","gemeinde":"Schaffhausen"},"geometry":{"type":"Point","coordinates":[8.61729,47.7002]}},{"type":"Feature","properties":{"kat":"schule","name":"Schulhaus Löhningen","gemeinde":"Löhningen"},"geometry":{"type":"Point","coordinates":[8.55319,47.70034]}},{"type":"Feature","properties":{"kat":"altersheim","name":"Alters- und Pflegeheim Hand in Hand","gemeinde":"Schaffhausen"},"geometry":{"type":"Point","coordinates":[8.59018,47.72977]}},{"type":"Feature","properties":{"kat":"kindergarten","name":"Kindergarten Hemmental","gemeinde":"Schaffhausen"},"geometry":{"type":"Point","coordinates":[8.57927,47.73507]}},{"type":"Feature","properties":{"kat":"schule","name":"Schulhaus Hemmental","gemeinde":"Schaffhausen"},"geometry":{"type":"Point","coordinates":[8.57888,47.7345]}},{"type":"Feature","properties":{"kat":"kindergarten","name":"","gemeinde":"Schaffhausen"},"geometry":{"type":"Point","coordinates":[8.66393,47.72354]}},{"type":"Feature","properties":{"kat":"kindergarten","name":"Kindergarten Gellerstrasse","gemeinde":"Beringen"},"geometry":{"type":"Point","coordinates":[8.58263,47.6977]}},{"type":"Feature","properties":{"kat":"schule","name":"Schulhaus Zimmerberg I","gemeinde":"Beringen"},"geometry":{"type":"Point","coordinates":[8.57576,47.70107]}},{"type":"Feature","properties":{"kat":"kindergarten","name":"Kindergarten","gemeinde":"Löhningen"},"geometry":{"type":"Point","coordinates":[8.55171,47.70428]}},{"type":"Feature","properties":{"kat":"kindergarten","name":"Kindergarten Breitiweg 1","gemeinde":"Neunkirch"},"geometry":{"type":"Point","coordinates":[8.50215,47.68958]}},{"type":"Feature","properties":{"kat":"altersheim","name":"Alters- und Pflegeheim Haus im Winkel","gemeinde":"Neunkirch"},"geometry":{"type":"Point","coordinates":[8.50092,47.69007]}},{"type":"Feature","properties":{"kat":"altersheim","name":"Alters- und Pflegeheim am Buck","gemeinde":"Hallau"},"geometry":{"type":"Point","coordinates":[8.46479,47.69892]}},{"type":"Feature","properties":{"kat":"schule","name":"Schulhaus Büttenhardt","gemeinde":"Büttenhardt"},"geometry":{"type":"Point","coordinates":[8.65554,47.75841]}},{"type":"Feature","properties":{"kat":"schule","name":"Dorfschulhaus Lohn","gemeinde":"Lohn (SH)"},"geometry":{"type":"Point","coordinates":[8.67099,47.7553]}},{"type":"Feature","properties":{"kat":"kindergarten","name":"Kindergarten Selhof","gemeinde":"Hallau"},"geometry":{"type":"Point","coordinates":[8.45343,47.69544]}},{"type":"Feature","properties":{"kat":"kindergarten","name":"Kindergarten","gemeinde":"Wilchingen"},"geometry":{"type":"Point","coordinates":[8.48969,47.6634]}},{"type":"Feature","properties":{"kat":"altersheim","name":"Alters- und Pflegeheim Altershaamet Wilchingen","gemeinde":"Wilchingen"},"geometry":{"type":"Point","coordinates":[8.46782,47.66984]}},{"type":"Feature","properties":{"kat":"schule","name":"Schulhaus und Sporthalle Wilchingen","gemeinde":"Wilchingen"},"geometry":{"type":"Point","coordinates":[8.46937,47.66843]}},{"type":"Feature","properties":{"kat":"schule","name":"Weierschulhaus - Verein Friedeck","gemeinde":"Hallau"},"geometry":{"type":"Point","coordinates":[8.45476,47.69841]}},{"type":"Feature","properties":{"kat":"schule","name":"Schulhaus","gemeinde":"Hallau"},"geometry":{"type":"Point","coordinates":[8.45769,47.69899]}},{"type":"Feature","properties":{"kat":"schule","name":"Schulhaus","gemeinde":"Hallau"},"geometry":{"type":"Point","coordinates":[8.45846,47.69894]}},{"type":"Feature","properties":{"kat":"kindergarten","name":"Kindergarten Laagass","gemeinde":"Hallau"},"geometry":{"type":"Point","coordinates":[8.45784,47.69845]}},{"type":"Feature","properties":{"kat":"altersheim","name":"Pflegewohngruppe Bahnhofstrasse","gemeinde":"Ramsen"},"geometry":{"type":"Point","coordinates":[8.81913,47.70764]}},{"type":"Feature","properties":{"kat":"altersheim","name":"Behindertenwohnheim Ilgenpark","gemeinde":"Ramsen"},"geometry":{"type":"Point","coordinates":[8.82037,47.70773]}},{"type":"Feature","properties":{"kat":"altersheim","name":"Aussenwohngruppe Bahnhofstrasse","gemeinde":"Ramsen"},"geometry":{"type":"Point","coordinates":[8.81514,47.7077]}},{"type":"Feature","properties":{"kat":"altersheim","name":"BACHWIESEN Alters- und Pflegeheim","gemeinde":"Ramsen"},"geometry":{"type":"Point","coordinates":[8.80773,47.70881]}},{"type":"Feature","properties":{"kat":"altersheim","name":"Aussenwohngruppe Hegau","gemeinde":"Ramsen"},"geometry":{"type":"Point","coordinates":[8.81122,47.70882]}},{"type":"Feature","properties":{"kat":"altersheim","name":"Aussenwohngruppe Baumgarten","gemeinde":"Ramsen"},"geometry":{"type":"Point","coordinates":[8.81895,47.70649]}},{"type":"Feature","properties":{"kat":"altersheim","name":"Aussenwohngruppe Rosenegg","gemeinde":"Ramsen"},"geometry":{"type":"Point","coordinates":[8.81852,47.70951]}},{"type":"Feature","properties":{"kat":"altersheim","name":"Aussenwohngruppe Moskau","gemeinde":"Ramsen"},"geometry":{"type":"Point","coordinates":[8.82062,47.71116]}},{"type":"Feature","properties":{"kat":"schule","name":"Schulhaus Ramsen","gemeinde":"Ramsen"},"geometry":{"type":"Point","coordinates":[8.81447,47.70893]}},{"type":"Feature","properties":{"kat":"altersheim","name":"Früeling - Zentrum fürs Alter","gemeinde":"Beringen"},"geometry":{"type":"Point","coordinates":[8.57471,47.69621]}},{"type":"Feature","properties":{"kat":"schule","name":"Schulhaus Schützeweg 1 (Primar Unterstufe)","gemeinde":"Beringen"},"geometry":{"type":"Point","coordinates":[8.57593,47.70156]}},{"type":"Feature","properties":{"kat":"kindergarten","name":"Kindergarten Oberhallau","gemeinde":"Oberhallau"},"geometry":{"type":"Point","coordinates":[8.47835,47.7043]}},{"type":"Feature","properties":{"kat":"schule","name":"Schulhaus Oberhallau","gemeinde":"Oberhallau"},"geometry":{"type":"Point","coordinates":[8.47795,47.7049]}},{"type":"Feature","properties":{"kat":"schule","name":"Schulhaus","gemeinde":"Schleitheim"},"geometry":{"type":"Point","coordinates":[8.48511,47.74764]}},{"type":"Feature","properties":{"kat":"schule","name":"Aula","gemeinde":"Schleitheim"},"geometry":{"type":"Point","coordinates":[8.48406,47.74717]}},{"type":"Feature","properties":{"kat":"kindergarten","name":"Kindergarten Im Brüel","gemeinde":"Schleitheim"},"geometry":{"type":"Point","coordinates":[8.48691,47.74786]}},{"type":"Feature","properties":{"kat":"altersheim","name":"Altersheim Schleitheim","gemeinde":"Schleitheim"},"geometry":{"type":"Point","coordinates":[8.4977,47.75598]}},{"type":"Feature","properties":{"kat":"kindergarten","name":"Kindergarten Beggingen","gemeinde":"Beggingen"},"geometry":{"type":"Point","coordinates":[8.53764,47.76731]}},{"type":"Feature","properties":{"kat":"schule","name":"Schulhaus Stetten","gemeinde":"Stetten (SH)"},"geometry":{"type":"Point","coordinates":[8.66189,47.74024]}},{"type":"Feature","properties":{"kat":"schule","name":"","gemeinde":"Thayngen"},"geometry":{"type":"Point","coordinates":[8.71172,47.74903]}},{"type":"Feature","properties":{"kat":"schule","name":"Schulhaus Chapf","gemeinde":"Rüdlingen"},"geometry":{"type":"Point","coordinates":[8.56657,47.5793]}},{"type":"Feature","properties":{"kat":"kindergarten","name":"Kindergarten Ramsen","gemeinde":"Ramsen"},"geometry":{"type":"Point","coordinates":[8.8144,47.70845]}},{"type":"Feature","properties":{"kat":"kindergarten","name":"Bärenhütte","gemeinde":"Neuhausen am Rheinfall"},"geometry":{"type":"Point","coordinates":[8.58926,47.68441]}},{"type":"Feature","properties":{"kat":"schule","name":"Primarschule Gächlingen","gemeinde":"Gächlingen"},"geometry":{"type":"Point","coordinates":[8.49613,47.70302]}},{"type":"Feature","properties":{"kat":"schule","name":"KinderPavillon","gemeinde":"Rüdlingen"},"geometry":{"type":"Point","coordinates":[8.56736,47.5782]}},{"type":"Feature","properties":{"kat":"kindergarten","name":"Kindergarten Trasadingen","gemeinde":"Trasadingen"},"geometry":{"type":"Point","coordinates":[8.429,47.668]}},{"type":"Feature","properties":{"kat":"kindergarten","name":"Kindergarten Haargasse","gemeinde":"Beringen"},"geometry":{"type":"Point","coordinates":[8.57567,47.70021]}},{"type":"Feature","properties":{"kat":"kindergarten","name":"Kindergarten Merzenbrunnen","gemeinde":"Thayngen"},"geometry":{"type":"Point","coordinates":[8.7092,47.74837]}}]}