{"type":"FeatureCollection","quelle":"Amt für Geoinformation Kanton Schaffhausen, WFS-Ebene sh.richtplan.strassenrichtplan.kanton.strassen.bestehend.fkt, abgefragt am 03.09.2026. Nur verkehrsorientierte Strassen, also überregional und regional. Wegstücke verkettet, Douglas-Peucker 5 m.","hinweis":"Behördenverbindliche Funktionszuweisung. Der Gegenvorschlag knüpft genau daran an.","features":[{"type":"Feature","properties":{"k":"ueberregional"},"geometry":{"type":"LineString","coordinates":[[8.64094,47.6943],[8.63984,47.69509],[8.63612,47.69372],[8.63521,47.69355],[8.63266,47.69347],[8.63105,47.69368],[8.62999,47.6937],[8.62961,47.69364],[8.62858,47.69317],[8.62808,47.69304],[8.62655,47.6931],[8.62253,47.69257],[8.62231,47.69262],[8.62197,47.69231],[8.62173,47.69152],[8.62177,47.69129],[8.62217,47.69065],[8.62236,47.68974],[8.6225,47.68843],[8.62234,47.68753],[8.6208,47.68543],[8.61982,47.68428],[8.61827,47.68284],[8.61744,47.68224],[8.61716,47.68226],[8.61588,47.68264],[8.61286,47.68358],[8.61261,47.68372],[8.61131,47.68561],[8.6112,47.68633],[8.61147,47.68766],[8.61133,47.68829],[8.61115,47.68862],[8.61066,47.68919],[8.6094,47.69009],[8.60853,47.69084],[8.60828,47.69118],[8.60813,47.69183],[8.60702,47.69282],[8.60661,47.69295],[8.60612,47.69296],[8.60468,47.69344],[8.59965,47.69414],[8.59886,47.69407],[8.59501,47.69334],[8.59135,47.69245],[8.58922,47.69183],[8.58777,47.69152],[8.58635,47.69135],[8.58164,47.69113],[8.57986,47.69096],[8.57637,47.69042],[8.57392,47.68983],[8.57177,47.68951],[8.56741,47.68944],[8.56523,47.68905],[8.56424,47.68897],[8.55929,47.68938],[8.55806,47.68936],[8.55656,47.68921],[8.55264,47.68923],[8.54936,47.68894],[8.54696,47.68884],[8.544,47.68861],[8.53967,47.68807],[8.5349,47.68791],[8.53224,47.68762],[8.5291,47.68684],[8.52812,47.68649],[8.52384,47.6846],[8.5225,47.68373],[8.52188,47.68359],[8.52139,47.68369],[8.5209,47.68417],[8.52059,47.68434],[8.51989,47.68451],[8.5195,47.68451],[8.51613,47.68404],[8.51489,47.68395],[8.51306,47.68397],[8.51073,47.6841],[8.51,47.68435],[8.50869,47.68502],[8.50509,47.68726],[8.50361,47.68796],[8.50288,47.68808],[8.50253,47.68799],[8.50214,47.688],[8.50129,47.68845],[8.50065,47.68858],[8.49856,47.68843],[8.49809,47.68824],[8.49757,47.68761],[8.49712,47.68728],[8.49554,47.68709],[8.49359,47.68664],[8.49104,47.68525],[8.48673,47.68381],[8.48402,47.68339],[8.48242,47.6828],[8.48174,47.68265],[8.48022,47.68252],[8.47613,47.68248],[8.47301,47.68183],[8.47074,47.68091],[8.46775,47.67943],[8.46721,47.67923],[8.46326,47.67854],[8.45769,47.67654],[8.45725,47.67647],[8.45568,47.67652],[8.45483,47.67637],[8.45389,47.67599],[8.45289,47.67534],[8.45226,47.67505],[8.44335,47.67259],[8.44225,47.67221],[8.44191,47.67202],[8.44135,47.67151],[8.4372,47.66721],[8.43455,47.6647],[8.43206,47.66208]]}},{"type":"Feature","properties":{"k":"ueberregional"},"geometry":{"type":"LineString","coordinates":[[8.60823,47.79297],[8.61143,47.79234],[8.61238,47.79198],[8.61318,47.79146],[8.6137,47.79097],[8.61461,47.78959],[8.61381,47.79104],[8.61314,47.79176],[8.61246,47.79219],[8.61122,47.79262],[8.6085,47.79299],[8.60823,47.79297],[8.60671,47.79332],[8.60545,47.7935],[8.60381,47.79348],[8.60084,47.79304],[8.59927,47.79306],[8.5985,47.79317],[8.59555,47.79385],[8.5896,47.79436],[8.58804,47.79456],[8.5863,47.79493],[8.58198,47.79604],[8.58054,47.79635],[8.57793,47.79678],[8.57688,47.79706],[8.57577,47.79763],[8.57522,47.7981],[8.5747,47.79881],[8.57452,47.79934],[8.5745,47.80017],[8.57469,47.80075],[8.57521,47.8015],[8.57567,47.80188]]}},{"type":"Feature","properties":{"k":"ueberregional"},"geometry":{"type":"LineString","coordinates":[[8.8347,47.67253],[8.83554,47.67389],[8.83563,47.67476],[8.83609,47.67483],[8.83563,47.67498],[8.83523,47.67582],[8.83459,47.67672],[8.83535,47.67539],[8.8354,47.67428]]}},{"type":"Feature","properties":{"k":"ueberregional"},"geometry":{"type":"LineString","coordinates":[[8.836,47.67389],[8.83624,47.674],[8.83648,47.67451],[8.83637,47.67473],[8.83609,47.67483]]}},{"type":"Feature","properties":{"k":"ueberregional"},"geometry":{"type":"LineString","coordinates":[[8.86077,47.654],[8.85837,47.65576],[8.85807,47.65586],[8.85764,47.65623],[8.85722,47.65645],[8.8541,47.65764],[8.85218,47.65817]]}},{"type":"Feature","properties":{"k":"ueberregional"},"geometry":{"type":"LineString","coordinates":[[8.62837,47.72741],[8.62666,47.72902],[8.62556,47.73061],[8.62493,47.73217],[8.62448,47.7351],[8.62413,47.73616],[8.62354,47.73715],[8.62178,47.73918],[8.62119,47.74028],[8.62096,47.74145],[8.62121,47.74388],[8.62117,47.74501],[8.62092,47.74609],[8.62056,47.74699],[8.61973,47.74833],[8.61755,47.75064],[8.61678,47.75162],[8.61509,47.75463],[8.61334,47.75718],[8.61305,47.75796],[8.6127,47.75969],[8.6124,47.76047],[8.61187,47.76129],[8.61061,47.76275],[8.61031,47.76339],[8.61018,47.76443],[8.61029,47.76502],[8.6106,47.76575],[8.61138,47.76691],[8.61425,47.77047],[8.61526,47.77217],[8.61563,47.773],[8.61661,47.77594],[8.61743,47.77783],[8.6176,47.77843],[8.61764,47.7791],[8.61751,47.77994],[8.61732,47.78038],[8.61682,47.78115],[8.61554,47.78271],[8.61501,47.7838],[8.61489,47.78489],[8.61549,47.78741],[8.61539,47.78818],[8.61504,47.78896],[8.61404,47.79027],[8.61326,47.79067],[8.61223,47.7917],[8.61183,47.79185],[8.61183,47.79201],[8.61116,47.79234],[8.6096,47.79269]]}},{"type":"Feature","properties":{"k":"ueberregional"},"geometry":{"type":"LineString","coordinates":[[8.82278,47.71231],[8.82239,47.71161],[8.82173,47.71093],[8.82139,47.71017],[8.82094,47.70796],[8.82021,47.70589],[8.82021,47.7053],[8.82039,47.70434],[8.8208,47.70352],[8.82225,47.70134],[8.82753,47.68937],[8.82788,47.68793],[8.82793,47.68552],[8.82804,47.68479],[8.82841,47.6839],[8.829,47.68307],[8.82951,47.68207],[8.82795,47.68407],[8.82774,47.685],[8.82789,47.68742],[8.82786,47.68489],[8.82814,47.68408],[8.82884,47.68328],[8.83023,47.68223],[8.83459,47.67672]]}},{"type":"Feature","properties":{"k":"ueberregional"},"geometry":{"type":"LineString","coordinates":[[8.83739,47.67304],[8.83639,47.67368],[8.83624,47.674]]}},{"type":"Feature","properties":{"k":"ueberregional"},"geometry":{"type":"LineString","coordinates":[[8.83551,47.67384],[8.83564,47.67403],[8.83573,47.67459],[8.83603,47.67476],[8.8363,47.67467],[8.83636,47.67445],[8.83615,47.6741],[8.8359,47.67395]]}},{"type":"Feature","properties":{"k":"ueberregional"},"geometry":{"type":"LineString","coordinates":[[8.83563,47.67476],[8.8356,47.67502]]}},{"type":"Feature","properties":{"k":"ueberregional"},"geometry":{"type":"LineString","coordinates":[[8.61261,47.68372],[8.61103,47.6833],[8.61046,47.68298],[8.60622,47.67952],[8.60554,47.67905],[8.60163,47.67755],[8.60067,47.67698],[8.59779,47.67276],[8.59571,47.66932]]}},{"type":"Feature","properties":{"k":"ueberregional"},"geometry":{"type":"LineString","coordinates":[[8.61474,47.7894],[8.61461,47.78959]]}},{"type":"Feature","properties":{"k":"ueberregional"},"geometry":{"type":"LineString","coordinates":[[8.61183,47.79201],[8.61205,47.7918]]}},{"type":"Feature","properties":{"k":"regional"},"geometry":{"type":"LineString","coordinates":[[8.50288,47.68808],[8.5024,47.68829],[8.50168,47.68846],[8.50117,47.68895],[8.50048,47.68928],[8.50048,47.68948],[8.50038,47.68953],[8.49785,47.68941],[8.49701,47.68957],[8.49691,47.68961],[8.49701,47.69018],[8.47866,47.69193],[8.46963,47.69331],[8.46705,47.6934],[8.46663,47.69358],[8.46628,47.69389],[8.4652,47.69534],[8.46477,47.69629],[8.46447,47.69767],[8.46375,47.69793],[8.46249,47.69767],[8.46216,47.69768],[8.46167,47.69808],[8.46121,47.69818],[8.46088,47.69815],[8.45995,47.69775],[8.45804,47.69715],[8.45747,47.69682],[8.45727,47.69658],[8.45749,47.69597],[8.45722,47.69519],[8.45755,47.69308],[8.45799,47.69162],[8.45862,47.6901],[8.46113,47.68505],[8.46232,47.68308],[8.46263,47.68281],[8.46298,47.68266],[8.46518,47.68235],[8.46548,47.68216],[8.46555,47.6819],[8.46416,47.68014],[8.46396,47.67971],[8.45913,47.67773],[8.45812,47.67711],[8.45726,47.67677],[8.45701,47.6765],[8.45711,47.67608],[8.45725,47.67592],[8.45771,47.67569],[8.4613,47.67421],[8.46391,47.67262],[8.46448,47.67209],[8.46468,47.67165],[8.46466,47.67115],[8.46382,47.66829],[8.46375,47.66774],[8.46565,47.66757],[8.46815,47.66758],[8.46976,47.66736],[8.46968,47.66708],[8.46872,47.66592],[8.46874,47.66487],[8.46837,47.6638],[8.46861,47.66338],[8.46915,47.66315],[8.47,47.66318],[8.47055,47.6631],[8.47487,47.6617],[8.4784,47.6609],[8.47921,47.66057],[8.48189,47.65908],[8.48303,47.65715],[8.48417,47.65556],[8.48891,47.65274],[8.48978,47.65245],[8.49156,47.65207],[8.49618,47.65028],[8.49689,47.65011],[8.50038,47.64959],[8.50102,47.64955],[8.50331,47.64975],[8.504,47.64973],[8.50596,47.64949],[8.50913,47.64963],[8.51056,47.64959],[8.5154,47.64862],[8.51695,47.6481],[8.51853,47.64779],[8.51952,47.64746],[8.52051,47.64698],[8.52197,47.64588],[8.52239,47.6457],[8.52323,47.64551],[8.52483,47.64543],[8.5283,47.64587],[8.53006,47.64599],[8.53077,47.64597],[8.53156,47.64577]]}},{"type":"Feature","properties":{"k":"regional"},"geometry":{"type":"LineString","coordinates":[[8.83559,47.67415],[8.83739,47.67304],[8.83957,47.67191],[8.84162,47.67072],[8.84241,47.67009],[8.84436,47.66816],[8.84606,47.66694],[8.84769,47.66559],[8.84906,47.66465],[8.85093,47.66392],[8.85226,47.66331],[8.85543,47.6623],[8.8569,47.66175],[8.85756,47.66108],[8.85828,47.66123],[8.85911,47.66113],[8.85997,47.66092],[8.86041,47.66126],[8.86063,47.6613],[8.86124,47.66044],[8.86222,47.65962],[8.86494,47.65938],[8.86801,47.65834],[8.86896,47.65816],[8.87261,47.65827],[8.87299,47.65853],[8.87365,47.65969],[8.87393,47.65993],[8.87521,47.66039],[8.87586,47.6604]]}},{"type":"Feature","properties":{"k":"regional"},"geometry":{"type":"LineString","coordinates":[[8.5679,47.69877],[8.56177,47.70009],[8.55839,47.70104],[8.55595,47.70146],[8.55426,47.70145],[8.55177,47.70114],[8.5508,47.70109],[8.54901,47.70117],[8.54791,47.70138],[8.54577,47.70224],[8.54175,47.70342],[8.54083,47.70376],[8.54032,47.70405],[8.53918,47.70492],[8.53641,47.70643],[8.5346,47.70665],[8.53281,47.70672],[8.53105,47.70689],[8.53017,47.70714],[8.52911,47.70765],[8.52793,47.70828],[8.52756,47.7086],[8.52722,47.70912],[8.52691,47.71007],[8.52593,47.71138],[8.52427,47.71197],[8.5239,47.71218],[8.52378,47.71242],[8.52374,47.71323],[8.52344,47.71354],[8.5187,47.71454],[8.51771,47.71439],[8.51683,47.71436],[8.51282,47.71487],[8.51108,47.71526],[8.50952,47.71592],[8.5092,47.71613],[8.50908,47.71647],[8.50959,47.71781],[8.50959,47.71807],[8.50946,47.71826],[8.50775,47.71957],[8.50669,47.72109],[8.50664,47.72138],[8.50701,47.72201],[8.50697,47.72224],[8.50671,47.72231],[8.50651,47.72225],[8.5056,47.72151],[8.50516,47.72145],[8.50484,47.72157],[8.50182,47.72433],[8.49978,47.72727],[8.49485,47.73218],[8.49448,47.73232],[8.4942,47.73234],[8.49137,47.73213],[8.49109,47.73216],[8.48885,47.73311],[8.48764,47.73393],[8.48702,47.73459],[8.48505,47.73628],[8.48378,47.73752],[8.48345,47.73799],[8.48262,47.74062],[8.48224,47.74149],[8.48084,47.74329],[8.47897,47.745],[8.47895,47.74523],[8.4791,47.74547],[8.48033,47.74608],[8.48051,47.74629],[8.48024,47.74691],[8.47981,47.74735],[8.47937,47.74755],[8.47896,47.74758],[8.47709,47.7472],[8.47635,47.74712],[8.47218,47.74729],[8.46815,47.74679],[8.46711,47.74674],[8.46295,47.74628],[8.46103,47.74599],[8.46059,47.74607],[8.46036,47.74619],[8.46012,47.74641],[8.4598,47.74698],[8.45954,47.7472],[8.45697,47.74882],[8.45643,47.74908]]}},{"type":"Feature","properties":{"k":"regional"},"geometry":{"type":"LineString","coordinates":[[8.45747,47.69682],[8.45704,47.69671],[8.45726,47.69648]]}},{"type":"Feature","properties":{"k":"regional"},"geometry":{"type":"LineString","coordinates":[[8.82108,47.70891],[8.81603,47.70862],[8.81522,47.70849],[8.81274,47.70764],[8.81221,47.70703],[8.81094,47.7072],[8.81014,47.70717],[8.80969,47.70765],[8.80806,47.70737],[8.80745,47.70717],[8.80692,47.70692],[8.80521,47.70553],[8.80501,47.70524],[8.80449,47.7037],[8.80415,47.70342],[8.80371,47.70325],[8.80262,47.70301],[8.80236,47.70314],[8.80196,47.70378],[8.80177,47.70381],[8.8016,47.7037],[8.80163,47.70317],[8.80195,47.70255],[8.80201,47.70202],[8.80247,47.70115],[8.80295,47.69897],[8.80289,47.69877],[8.80266,47.69869],[8.80245,47.69872],[8.80013,47.70032],[8.79977,47.70049],[8.79941,47.70054],[8.7985,47.70041]]}},{"type":"Feature","properties":{"k":"regional"},"geometry":{"type":"LineString","coordinates":[[8.63836,47.69455],[8.63819,47.69479],[8.63824,47.69533],[8.63765,47.69752],[8.63715,47.69835],[8.63625,47.69877],[8.63602,47.69911],[8.63577,47.69982],[8.6349,47.69988],[8.63435,47.69983],[8.63381,47.69991],[8.63364,47.70001],[8.63447,47.70057],[8.63471,47.70089],[8.63505,47.70251],[8.63563,47.70345],[8.63674,47.70604],[8.63726,47.70699],[8.63807,47.70808],[8.6392,47.70927],[8.64179,47.71299],[8.64233,47.7146],[8.64248,47.71556],[8.64234,47.71724],[8.64257,47.71865],[8.64217,47.72086],[8.64241,47.72125],[8.64349,47.72215],[8.64291,47.7225],[8.63962,47.72381],[8.6378,47.72469],[8.63719,47.72487],[8.63458,47.72532],[8.63398,47.72535],[8.63353,47.72525],[8.63316,47.72509],[8.63217,47.72444],[8.63058,47.72392]]}},{"type":"Feature","properties":{"k":"regional"},"geometry":{"type":"LineString","coordinates":[[8.71657,47.69499],[8.72214,47.69492],[8.72502,47.69501],[8.7268,47.69515]]}},{"type":"Feature","properties":{"k":"regional"},"geometry":{"type":"LineString","coordinates":[[8.63649,47.701],[8.63633,47.70055],[8.63585,47.70009],[8.63573,47.70025],[8.6352,47.70045],[8.63585,47.70082],[8.63649,47.701],[8.63667,47.70143],[8.63753,47.70178],[8.63771,47.70273],[8.63817,47.70422],[8.63973,47.70673],[8.64023,47.70653],[8.64033,47.70579],[8.6405,47.70564],[8.64086,47.70564],[8.64156,47.70585],[8.64242,47.70637],[8.64455,47.70745],[8.64621,47.70806],[8.6468,47.70818],[8.65274,47.71103],[8.65762,47.71357],[8.65785,47.71371],[8.65808,47.71401],[8.65791,47.7146],[8.65646,47.71725],[8.65615,47.71762],[8.65586,47.71774],[8.65547,47.71778],[8.65506,47.71768],[8.65419,47.71722],[8.65297,47.71726],[8.65213,47.71701],[8.65175,47.71698],[8.64993,47.71733],[8.64993,47.7175],[8.6504,47.71837],[8.65044,47.71878],[8.64864,47.71919],[8.64653,47.72003],[8.64546,47.72067],[8.64393,47.72189],[8.64349,47.72215]]}},{"type":"Feature","properties":{"k":"regional"},"geometry":{"type":"LineString","coordinates":[[8.80806,47.70737],[8.80754,47.70783],[8.80542,47.7086],[8.79574,47.71384],[8.79145,47.71571],[8.78638,47.71758],[8.78605,47.71804],[8.78608,47.71843],[8.78672,47.71919],[8.78729,47.72047],[8.78703,47.72321],[8.78716,47.72567],[8.78693,47.72609],[8.78481,47.72733]]}},{"type":"Feature","properties":{"k":"regional"},"geometry":{"type":"LineString","coordinates":[[8.65749,47.71536],[8.66276,47.71668],[8.66341,47.71674],[8.66262,47.71826],[8.66229,47.72187],[8.66218,47.72201],[8.66353,47.72274],[8.66388,47.72307],[8.66418,47.72354],[8.66424,47.72416],[8.66391,47.72525],[8.66396,47.72669],[8.66368,47.72775],[8.66365,47.72824],[8.66384,47.72879],[8.66423,47.72935],[8.66479,47.72967],[8.66694,47.72985],[8.66907,47.73049],[8.67015,47.73155],[8.67272,47.73291],[8.67294,47.73309],[8.67345,47.73396],[8.67535,47.73661],[8.67692,47.73839],[8.67746,47.73886],[8.67939,47.74007],[8.6817,47.7411],[8.68724,47.74209],[8.68799,47.74228],[8.68824,47.7425],[8.68855,47.7437],[8.68904,47.74436],[8.68958,47.74458],[8.69098,47.74486],[8.69183,47.7449],[8.69221,47.74507],[8.69234,47.74526],[8.6923,47.74546],[8.69166,47.74627],[8.6917,47.74644],[8.69188,47.74655],[8.69192,47.74625],[8.69177,47.74606]]}},{"type":"Feature","properties":{"k":"regional"},"geometry":{"type":"LineString","coordinates":[[8.68096,47.78661],[8.68005,47.78535],[8.67955,47.78486],[8.67814,47.78356],[8.67693,47.78278],[8.67578,47.78054],[8.67551,47.78023],[8.67512,47.78002],[8.67196,47.77888],[8.67094,47.77841],[8.6701,47.77788],[8.66956,47.77742],[8.66937,47.77696],[8.6694,47.77659],[8.66957,47.7763],[8.66992,47.77599],[8.67191,47.77494],[8.67262,47.77469],[8.67646,47.77366],[8.67785,47.77307],[8.67938,47.77265],[8.6801,47.77229],[8.68044,47.77192],[8.68067,47.77105],[8.68624,47.76481],[8.6866,47.76418],[8.68726,47.762],[8.68668,47.7594],[8.6868,47.75888],[8.68746,47.75811],[8.68844,47.75725],[8.6912,47.75522],[8.69261,47.75342],[8.69466,47.74928],[8.69463,47.74889],[8.69415,47.74789],[8.69392,47.74775],[8.69332,47.74763],[8.69304,47.7475],[8.69188,47.74655]]}},{"type":"Feature","properties":{"k":"regional"},"geometry":{"type":"LineString","coordinates":[[8.69409,47.74784],[8.69451,47.7478],[8.69608,47.74799],[8.69698,47.74801],[8.70051,47.74746],[8.7007,47.74729],[8.70098,47.74601],[8.70124,47.74585],[8.7048,47.7458],[8.70498,47.74575],[8.70571,47.74586],[8.70589,47.74583],[8.7061,47.74563],[8.70542,47.745],[8.70526,47.74474],[8.7053,47.74427],[8.70559,47.74395],[8.70542,47.74369],[8.70536,47.74269],[8.70505,47.74208]]}},{"type":"Feature","properties":{"k":"regional"},"geometry":{"type":"LineString","coordinates":[[8.69192,47.74625],[8.69261,47.74567],[8.69269,47.74539],[8.69259,47.74509],[8.69232,47.74483],[8.69206,47.74471],[8.69071,47.7444],[8.69005,47.74411],[8.6898,47.74389],[8.68997,47.74358]]}},{"type":"Feature","properties":{"k":"regional"},"geometry":{"type":"LineString","coordinates":[[8.63462,47.69988],[8.6352,47.70045]]}},{"type":"Feature","properties":{"k":"regional"},"geometry":{"type":"LineString","coordinates":[[8.63577,47.69982],[8.63585,47.70009]]}},{"type":"Feature","properties":{"k":"regional"},"geometry":{"type":"LineString","coordinates":[[8.63984,47.69509],[8.64075,47.69562],[8.64119,47.69578],[8.64373,47.69567],[8.64407,47.69526],[8.64602,47.69469],[8.64729,47.69414],[8.65064,47.69298],[8.6517,47.69249],[8.65485,47.68985],[8.65641,47.68895],[8.65726,47.68861],[8.65933,47.68799],[8.66225,47.68668],[8.66375,47.68639]]}},{"type":"Feature","properties":{"k":"regional"},"geometry":{"type":"LineString","coordinates":[[8.86229,47.6596],[8.86195,47.65946],[8.86125,47.65934],[8.8611,47.65908],[8.86077,47.65883],[8.86011,47.65907],[8.85953,47.6591],[8.85863,47.65774],[8.85769,47.6567],[8.85766,47.6564],[8.85807,47.65586],[8.85755,47.65525],[8.85721,47.65467],[8.85549,47.6541],[8.85461,47.65366],[8.85319,47.65232],[8.85199,47.65159],[8.85158,47.65125]]}},{"type":"Feature","properties":{"k":"regional"},"geometry":{"type":"LineString","coordinates":[[8.55708,47.59757],[8.55863,47.59649],[8.5632,47.59369],[8.5661,47.59059],[8.56789,47.58804],[8.56807,47.58748],[8.56805,47.58665],[8.56834,47.5854],[8.56874,47.58389],[8.569,47.58346],[8.56964,47.58302],[8.57151,47.58246],[8.57221,47.58215],[8.57545,47.58026],[8.57623,47.57973],[8.57667,47.57928],[8.577,47.5787],[8.57784,47.576]]}},{"type":"Feature","properties":{"k":"regional"},"geometry":{"type":"LineString","coordinates":[[8.69167,47.75503],[8.69141,47.75494]]}},{"type":"Feature","properties":{"k":"regional"},"geometry":{"type":"LineString","coordinates":[[8.85769,47.6567],[8.8573,47.65658],[8.85614,47.65683]]}},{"type":"Feature","properties":{"k":"regional"},"geometry":{"type":"LineString","coordinates":[[8.6898,47.74389],[8.68971,47.74381],[8.68979,47.74332]]}}]}