{"type":"FeatureCollection","features":[{"type":"Feature","properties":{"kat":"kindergarten","name":"Kindergarten Waldpark","gemeinde":"Neuhausen am Rheinfall"},"geometry":{"type":"Point","coordinates":[8.60521190835557,47.681989610236684]}},{"type":"Feature","properties":{"kat":"schule","name":"","gemeinde":"Siblingen"},"geometry":{"type":"Point","coordinates":[8.51921620826273,47.71464931027086]}},{"type":"Feature","properties":{"kat":"schule","name":"Schule Schleitheim","gemeinde":"Schleitheim"},"geometry":{"type":"Point","coordinates":[8.48427310821846,47.74769461028992]}},{"type":"Feature","properties":{"kat":"schule","name":"","gemeinde":"Beggingen"},"geometry":{"type":"Point","coordinates":[8.532989108258915,47.76654121028068]}},{"type":"Feature","properties":{"kat":"kindergarten","name":"Kindergarten Guntmadingen","gemeinde":"Beringen"},"geometry":{"type":"Point","coordinates":[8.55694350830832,47.68554151025184]}},{"type":"Feature","properties":{"kat":"schule","name":"Primarschule","gemeinde":"Thayngen"},"geometry":{"type":"Point","coordinates":[8.711409408433797,47.74945571022325]}},{"type":"Feature","properties":{"kat":"kindergarten","name":"Kinderkrippe Kimi","gemeinde":"Thayngen"},"geometry":{"type":"Point","coordinates":[8.710747908433616,47.74812541022309]}},{"type":"Feature","properties":{"kat":"kindergarten","name":"WaldSpielgruppe Schneckennest","gemeinde":"Beringen"},"geometry":{"type":"Point","coordinates":[8.562627708315354,47.68064451024885]}},{"type":"Feature","properties":{"kat":"altersheim","name":"BWA - Betreutes Wohnen und Arbeiten","gemeinde":"Büttenhardt"},"geometry":{"type":"Point","coordinates":[8.64056120836205,47.763934110248236]}},{"type":"Feature","properties":{"kat":"kindergarten","name":"Kindergarten Herti","gemeinde":"Lohn (SH)"},"geometry":{"type":"Point","coordinates":[8.666385108389445,47.75504091023822]}},{"type":"Feature","properties":{"kat":"schule","name":"Orientierungsschule","gemeinde":"Thayngen"},"geometry":{"type":"Point","coordinates":[8.710655408433325,47.748744010223255]}},{"type":"Feature","properties":{"kat":"schule","name":"Primarschule","gemeinde":"Thayngen"},"geometry":{"type":"Point","coordinates":[8.710718708433053,47.749730710223545]}},{"type":"Feature","properties":{"kat":"kindergarten","name":"Kindergarten Gächlingen","gemeinde":"Gächlingen"},"geometry":{"type":"Point","coordinates":[8.497262608245808,47.701905610273776]}},{"type":"Feature","properties":{"kat":"kindergarten","name":"Kindergarten Rhyhüsli und Sunnestrahl","gemeinde":"Rüdlingen"},"geometry":{"type":"Point","coordinates":[8.571746608357422,47.5775949102169]}},{"type":"Feature","properties":{"kat":"kindergarten","name":"Kindergarten Rietwies","gemeinde":"Stetten (SH)"},"geometry":{"type":"Point","coordinates":[8.658494008387448,47.73865181023619]}},{"type":"Feature","properties":{"kat":"schule","name":"International School of Schaffhausen","gemeinde":"Schaffhausen"},"geometry":{"type":"Point","coordinates":[8.630757908365872,47.72447751024066]}},{"type":"Feature","properties":{"kat":"schule","name":"Sprachheilschule Marienstift","gemeinde":"Schaffhausen"},"geometry":{"type":"Point","coordinates":[8.62462660837061,47.692479510233795]}},{"type":"Feature","properties":{"kat":"schule","name":"Dorfschulhaus","gemeinde":"Rüdlingen"},"geometry":{"type":"Point","coordinates":[8.571767608357447,47.57757601021694]}},{"type":"Feature","properties":{"kat":"schule","name":"Schulhaus Neunkirch","gemeinde":"Neunkirch"},"geometry":{"type":"Point","coordinates":[8.498648908250265,47.692251010270766]}},{"type":"Feature","properties":{"kat":"schule","name":"","gemeinde":"Buch (SH)"},"geometry":{"type":"Point","coordinates":[8.778925208508076,47.7173203101944]}},{"type":"Feature","properties":{"kat":"kindergarten","name":"Kindergarten Bargen","gemeinde":"Bargen (SH)"},"geometry":{"type":"Point","coordinates":[8.611223308324611,47.792868910264446]}},{"type":"Feature","properties":{"kat":"kindergarten","name":"Kindergarten","gemeinde":"Thayngen"},"geometry":{"type":"Point","coordinates":[8.677658708394283,47.77237451023936]}},{"type":"Feature","properties":{"kat":"schule","name":"Reiatschule","gemeinde":"Thayngen"},"geometry":{"type":"Point","coordinates":[8.670609508385395,47.779036110243176]}},{"type":"Feature","properties":{"kat":"altersheim","name":"Wohn- und Pflegeheim Sonnmatt","gemeinde":"Wilchingen"},"geometry":{"type":"Point","coordinates":[8.466933008226334,47.67181011027431]}},{"type":"Feature","properties":{"kat":"schule","name":"Neues Schulhaus","gemeinde":"Dörflingen"},"geometry":{"type":"Point","coordinates":[8.723710508459622,47.706981910208256]}},{"type":"Feature","properties":{"kat":"kindergarten","name":"Kindergarten","gemeinde":"Dörflingen"},"geometry":{"type":"Point","coordinates":[8.723871008459945,47.70647281020802]}},{"type":"Feature","properties":{"kat":"schule","name":"Altes Schulhaus","gemeinde":"Dörflingen"},"geometry":{"type":"Point","coordinates":[8.72341060845947,47.70658591020823]}},{"type":"Feature","properties":{"kat":"schule","name":"Gemeindewiesen Realschulhaus","gemeinde":"Neuhausen am Rheinfall"},"geometry":{"type":"Point","coordinates":[8.604181508354808,47.68131601023682]}},{"type":"Feature","properties":{"kat":"schule","name":"Aula Schulhaus","gemeinde":"Ramsen"},"geometry":{"type":"Point","coordinates":[8.815818508545481,47.70890821018097]}},{"type":"Feature","properties":{"kat":"schule","name":"Schulhaus Neunkirch","gemeinde":"Neunkirch"},"geometry":{"type":"Point","coordinates":[8.498650308250527,47.69144391027052]}},{"type":"Feature","properties":{"kat":"schule","name":"","gemeinde":"Neunkirch"},"geometry":{"type":"Point","coordinates":[8.499404508251153,47.691759510270394]}},{"type":"Feature","properties":{"kat":"kindergarten","name":"Kindergarten im Lahn 1+2","gemeinde":"Schaffhausen"},"geometry":{"type":"Point","coordinates":[8.616433808358343,47.706070810239936]}},{"type":"Feature","properties":{"kat":"kindergarten","name":"Kindergarten Riet","gemeinde":"Schaffhausen"},"geometry":{"type":"Point","coordinates":[8.61522570835785,47.70408091023979]}},{"type":"Feature","properties":{"kat":"kindergarten","name":"Kindergarten Oberbild","gemeinde":"Thayngen"},"geometry":{"type":"Point","coordinates":[8.703062108426096,47.748977210225604]}},{"type":"Feature","properties":{"kat":"kindergarten","name":"Kindergarten Engelmann","gemeinde":"Thayngen"},"geometry":{"type":"Point","coordinates":[8.71551130843803,47.748348210221764]}},{"type":"Feature","properties":{"kat":"schule","name":"Schulhaus Silberberg","gemeinde":"Thayngen"},"geometry":{"type":"Point","coordinates":[8.700268408423453,47.74899661022647]}},{"type":"Feature","properties":{"kat":"altersheim","name":"Seniorenzentrum Reiat","gemeinde":"Thayngen"},"geometry":{"type":"Point","coordinates":[8.704029808427888,47.74634741022464]}},{"type":"Feature","properties":{"kat":"schule","name":"Schule Thayngen Schulleitung und Hort","gemeinde":"Thayngen"},"geometry":{"type":"Point","coordinates":[8.710963908433746,47.74835031022312]}},{"type":"Feature","properties":{"kat":"altersheim","name":"Alterszentrum Breite - Wiesli","gemeinde":"Schaffhausen"},"geometry":{"type":"Point","coordinates":[8.620710208364027,47.70114471023735]}},{"type":"Feature","properties":{"kat":"altersheim","name":"Alterszentrum Breite - Wiesli","gemeinde":"Schaffhausen"},"geometry":{"type":"Point","coordinates":[8.620103208363503,47.700999810237484]}},{"type":"Feature","properties":{"kat":"schule","name":"","gemeinde":"Schaffhausen"},"geometry":{"type":"Point","coordinates":[8.622588508365213,47.70298561023726]}},{"type":"Feature","properties":{"kat":"schule","name":"Schulhaus Breite","gemeinde":"Schaffhausen"},"geometry":{"type":"Point","coordinates":[8.622242908364731,47.703450210237534]}},{"type":"Feature","properties":{"kat":"schule","name":"Schulhaus Sandacker","gemeinde":"Schaffhausen"},"geometry":{"type":"Point","coordinates":[8.617294008361094,47.700200210238094]}},{"type":"Feature","properties":{"kat":"schule","name":"Schulhaus Löhningen","gemeinde":"Löhningen"},"geometry":{"type":"Point","coordinates":[8.553194508299912,47.70034421025701]}},{"type":"Feature","properties":{"kat":"altersheim","name":"Alters- und Pflegeheim Hand in Hand","gemeinde":"Schaffhausen"},"geometry":{"type":"Point","coordinates":[8.59017810832554,47.729771010254105]}},{"type":"Feature","properties":{"kat":"kindergarten","name":"Kindergarten Hemmental","gemeinde":"Schaffhausen"},"geometry":{"type":"Point","coordinates":[8.579274208313421,47.735065610258715]}},{"type":"Feature","properties":{"kat":"schule","name":"Schulhaus Hemmental","gemeinde":"Schaffhausen"},"geometry":{"type":"Point","coordinates":[8.578883008313236,47.734500310258696]}},{"type":"Feature","properties":{"kat":"kindergarten","name":"","gemeinde":"Schaffhausen"},"geometry":{"type":"Point","coordinates":[8.663932308397628,47.723538510230554]}},{"type":"Feature","properties":{"kat":"kindergarten","name":"Kindergarten Gellerstrasse","gemeinde":"Beringen"},"geometry":{"type":"Point","coordinates":[8.58263300832889,47.69770401024762]}},{"type":"Feature","properties":{"kat":"schule","name":"Schulhaus Zimmerberg I","gemeinde":"Beringen"},"geometry":{"type":"Point","coordinates":[8.575758508321229,47.70106571025057]}},{"type":"Feature","properties":{"kat":"kindergarten","name":"Kindergarten","gemeinde":"Löhningen"},"geometry":{"type":"Point","coordinates":[8.551713808297212,47.70427771025851]}},{"type":"Feature","properties":{"kat":"kindergarten","name":"Kindergarten Breitiweg 1","gemeinde":"Neunkirch"},"geometry":{"type":"Point","coordinates":[8.502150208254493,47.689577310268994]}},{"type":"Feature","properties":{"kat":"altersheim","name":"Alters- und Pflegeheim Haus im Winkel","gemeinde":"Neunkirch"},"geometry":{"type":"Point","coordinates":[8.50092080825316,47.69006651026946]}},{"type":"Feature","properties":{"kat":"altersheim","name":"Alters- und Pflegeheim am Buck","gemeinde":"Hallau"},"geometry":{"type":"Point","coordinates":[8.464786208215545,47.69891981028242]}},{"type":"Feature","properties":{"kat":"schule","name":"Schulhaus Büttenhardt","gemeinde":"Büttenhardt"},"geometry":{"type":"Point","coordinates":[8.655542008378065,47.758412010242296]}},{"type":"Feature","properties":{"kat":"schule","name":"Dorfschulhaus Lohn","gemeinde":"Lohn (SH)"},"geometry":{"type":"Point","coordinates":[8.670991508393714,47.75529541023689]}},{"type":"Feature","properties":{"kat":"kindergarten","name":"Kindergarten Selhof","gemeinde":"Hallau"},"geometry":{"type":"Point","coordinates":[8.45343230820572,47.695441510284745]}},{"type":"Feature","properties":{"kat":"kindergarten","name":"Kindergarten","gemeinde":"Wilchingen"},"geometry":{"type":"Point","coordinates":[8.489690908250962,47.663396010265366]}},{"type":"Feature","properties":{"kat":"altersheim","name":"Alters- und Pflegeheim Altershaamet Wilchingen","gemeinde":"Wilchingen"},"geometry":{"type":"Point","coordinates":[8.467824008227824,47.66983691027348]}},{"type":"Feature","properties":{"kat":"schule","name":"Schulhaus und Sporthalle Wilchingen","gemeinde":"Wilchingen"},"geometry":{"type":"Point","coordinates":[8.469372308229767,47.668433510272635]}},{"type":"Feature","properties":{"kat":"schule","name":"Weierschulhaus - Verein Friedeck","gemeinde":"Hallau"},"geometry":{"type":"Point","coordinates":[8.454764708206055,47.69840531028517]}},{"type":"Feature","properties":{"kat":"schule","name":"Schulhaus","gemeinde":"Hallau"},"geometry":{"type":"Point","coordinates":[8.457687808208682,47.69898791028448]}},{"type":"Feature","properties":{"kat":"schule","name":"Schulhaus","gemeinde":"Hallau"},"geometry":{"type":"Point","coordinates":[8.458455308209441,47.69893771028424]}},{"type":"Feature","properties":{"kat":"kindergarten","name":"Kindergarten Laagass","gemeinde":"Hallau"},"geometry":{"type":"Point","coordinates":[8.457837708209004,47.69844671028431]}},{"type":"Feature","properties":{"kat":"altersheim","name":"Pflegewohngruppe Bahnhofstrasse","gemeinde":"Ramsen"},"geometry":{"type":"Point","coordinates":[8.819126908549006,47.70763741017965]}},{"type":"Feature","properties":{"kat":"altersheim","name":"Behindertenwohnheim Ilgenpark","gemeinde":"Ramsen"},"geometry":{"type":"Point","coordinates":[8.820374308550141,47.70772901017926]}},{"type":"Feature","properties":{"kat":"altersheim","name":"Aussenwohngruppe Bahnhofstrasse","gemeinde":"Ramsen"},"geometry":{"type":"Point","coordinates":[8.815138708545254,47.70769681018088]}},{"type":"Feature","properties":{"kat":"altersheim","name":"BACHWIESEN Alters- und Pflegeheim","gemeinde":"Ramsen"},"geometry":{"type":"Point","coordinates":[8.807734708537948,47.708809210183425]}},{"type":"Feature","properties":{"kat":"altersheim","name":"Aussenwohngruppe Hegau","gemeinde":"Ramsen"},"geometry":{"type":"Point","coordinates":[8.81122320854121,47.70882081018236]}},{"type":"Feature","properties":{"kat":"altersheim","name":"Aussenwohngruppe Baumgarten","gemeinde":"Ramsen"},"geometry":{"type":"Point","coordinates":[8.818947708549222,47.70649451017939]}},{"type":"Feature","properties":{"kat":"altersheim","name":"Aussenwohngruppe Rosenegg","gemeinde":"Ramsen"},"geometry":{"type":"Point","coordinates":[8.818524508547808,47.709507310180335]}},{"type":"Feature","properties":{"kat":"altersheim","name":"Aussenwohngruppe Moskau","gemeinde":"Ramsen"},"geometry":{"type":"Point","coordinates":[8.820622508549212,47.71116401018014]}},{"type":"Feature","properties":{"kat":"schule","name":"Schulhaus Ramsen","gemeinde":"Ramsen"},"geometry":{"type":"Point","coordinates":[8.814472708544214,47.7089277101814]}},{"type":"Feature","properties":{"kat":"altersheim","name":"Früeling - Zentrum fürs Alter","gemeinde":"Beringen"},"geometry":{"type":"Point","coordinates":[8.574707608321816,47.696209410249594]}},{"type":"Feature","properties":{"kat":"schule","name":"Schulhaus Schützeweg 1 (Primar Unterstufe)","gemeinde":"Beringen"},"geometry":{"type":"Point","coordinates":[8.57592720832123,47.70155691025069]}},{"type":"Feature","properties":{"kat":"kindergarten","name":"Kindergarten Oberhallau","gemeinde":"Oberhallau"},"geometry":{"type":"Point","coordinates":[8.478353908226863,47.704298610279956]}},{"type":"Feature","properties":{"kat":"schule","name":"Schulhaus Oberhallau","gemeinde":"Oberhallau"},"geometry":{"type":"Point","coordinates":[8.47795360822628,47.704904010280245]}},{"type":"Feature","properties":{"kat":"schule","name":"Schulhaus","gemeinde":"Schleitheim"},"geometry":{"type":"Point","coordinates":[8.485112608219284,47.7476436102897]}},{"type":"Feature","properties":{"kat":"schule","name":"Aula","gemeinde":"Schleitheim"},"geometry":{"type":"Point","coordinates":[8.48406300821844,47.747165510289825]}},{"type":"Feature","properties":{"kat":"kindergarten","name":"Kindergarten Im Brüel","gemeinde":"Schleitheim"},"geometry":{"type":"Point","coordinates":[8.486905108220938,47.74785881028919]}},{"type":"Feature","properties":{"kat":"altersheim","name":"Altersheim Schleitheim","gemeinde":"Schleitheim"},"geometry":{"type":"Point","coordinates":[8.497697208228631,47.7559840102882]}},{"type":"Feature","properties":{"kat":"kindergarten","name":"Kindergarten Beggingen","gemeinde":"Beggingen"},"geometry":{"type":"Point","coordinates":[8.537636308263103,47.76730961027948]}},{"type":"Feature","properties":{"kat":"schule","name":"Schulhaus Stetten","gemeinde":"Stetten (SH)"},"geometry":{"type":"Point","coordinates":[8.661891508390138,47.74023771023561]}},{"type":"Feature","properties":{"kat":"schule","name":"","gemeinde":"Thayngen"},"geometry":{"type":"Point","coordinates":[8.71171810843423,47.74902871022307]}},{"type":"Feature","properties":{"kat":"schule","name":"Schulhaus Chapf","gemeinde":"Rüdlingen"},"geometry":{"type":"Point","coordinates":[8.566574608351909,47.579295710218965]}},{"type":"Feature","properties":{"kat":"kindergarten","name":"Kindergarten Ramsen","gemeinde":"Ramsen"},"geometry":{"type":"Point","coordinates":[8.814403308544309,47.70845251018128]}},{"type":"Feature","properties":{"kat":"kindergarten","name":"Bärenhütte","gemeinde":"Neuhausen am Rheinfall"},"geometry":{"type":"Point","coordinates":[8.589259108339565,47.68440641024205]}},{"type":"Feature","properties":{"kat":"schule","name":"Primarschule Gächlingen","gemeinde":"Gächlingen"},"geometry":{"type":"Point","coordinates":[8.496130108244358,47.70302441027443]}},{"type":"Feature","properties":{"kat":"schule","name":"KinderPavillon","gemeinde":"Rüdlingen"},"geometry":{"type":"Point","coordinates":[8.567356408353003,47.57819731021841]}},{"type":"Feature","properties":{"kat":"kindergarten","name":"Kindergarten Trasadingen","gemeinde":"Trasadingen"},"geometry":{"type":"Point","coordinates":[8.428995008190924,47.66800451028422]}},{"type":"Feature","properties":{"kat":"kindergarten","name":"Kindergarten Haargasse","gemeinde":"Beringen"},"geometry":{"type":"Point","coordinates":[8.575669108321431,47.70021401025035]}},{"type":"Feature","properties":{"kat":"kindergarten","name":"Kindergarten Merzenbrunnen","gemeinde":"Thayngen"},"geometry":{"type":"Point","coordinates":[8.709204708432086,47.748367910223635]}}]}